ORBCOMM FM37            
1 33064U 08031E   25214.21237502  .00001474  00000+0  22112-3 0  9990
2 33064  48.4401 124.8088 0005346 216.5391 303.6960 14.79892185921187
ORBCOMM FM40            
1 33065U 08031F   25214.18365420  .00002055  00000+0  28189-3 0  9994
2 33065  48.4408 108.2060 0006565 228.5247 264.8764 14.82186154921421
VESSELSAT 1             
1 37840U 11058C   25214.19640195  .00000356  00000+0  49363-4 0  9998
2 37840  19.9605 175.4836 0013537 333.4474  26.5237 14.11360496713040
ORBCOMM FM109           
1 40086U 14040A   25213.88654749  .00000601  00000+0  16547-3 0  9993
2 40086  47.0026 160.4544 0001691 222.9263 137.1491 14.58226994587732
ORBCOMM FM107           
1 40087U 14040B   25214.46100859  .00000618  00000+0  16884-3 0  9999
2 40087  47.0043 158.6879 0000393 168.1817 191.9078 14.58302495587938
ORBCOMM FM106           
1 40088U 14040C   25214.46586573  .00000932  00000+0  18681-3 0  9997
2 40088  47.0621 337.0597 0017631 280.2072  79.6831 14.69527282590492
ORBCOMM FM111           
1 40089U 14040D   25213.52277490  .00002831  00000+0  33853-3 0  9997
2 40089  46.9998 185.6247 0029796  47.9252 312.4172 14.86488932596972
ORBCOMM FM104           
1 40090U 14040E   25214.15739101  .00000525  00000+0  15413-3 0  9991
2 40090  47.0035 194.2848 0015718  52.0202 308.2100 14.56694712587428
